NORAD_CAT_ID,OBJECT_NAME,OBJECT_TYPE,EPOCH,MEAN_MOTION,ECCENTRICITY,INCLINATION,RA_OF_ASC_NODE,ARG_OF_PERICENTER,MEAN_ANOMALY,BSTAR,MEAN_MOTION_DOT,MEAN_MOTION_DDOT,TLE_LINE0,TLE_LINE1,TLE_LINE2,SEMIMAJOR_AXIS,PERIOD,APOGEE,PERIGEE,DECAYED
49167.0,STARLINK-3054,PAYLOAD,2023-01-28 22:39:10,14.9833208,0.0002689,69.9999,278.0713,266.5958,93.4893,5.4964e-05,5.63e-06,0.0,0 STARLINK-3054,1 49167U 21082AP  23028.94387411  .00000563  00000-0  54964-4 0  9998,2 49167  69.9999 278.0713 0002689 266.5958  93.4893 14.98332080 77057,6950.186,96.107,573.92,570.183,0.0
49167.0,STARLINK-3054,PAYLOAD,2023-01-29 03:27:34,14.98333227,0.000282,69.9995,277.566,269.2157,90.8679,4.1445e-05,4.02e-06,0.0,0 STARLINK-3054,1 49167U 21082AP  23029.14415334  .00000402  00000-0  41445-4 0  9999,2 49167  69.9995 277.5660 0002820 269.2157  90.8679 14.98333227 77097,6950.183,96.107,574.008,570.088,0.0
49167.0,STARLINK-3054,PAYLOAD,2023-01-29 22:41:11,14.98326637,0.0002866,69.9997,275.5457,267.2123,92.8708,6.8327e-05,7.22e-06,0.0,0 STARLINK-3054,1 49167U 21082AP  23029.94527658  .00000722  00000-0  68327-4 0  9993,2 49167  69.9997 275.5457 0002866 267.2123  92.8708 14.98326637 77207,6950.203,96.107,574.06,570.076,0.0
49167.0,STARLINK-3054,PAYLOAD,2023-01-30 01:53:28,14.98308608,0.0002687,69.9997,275.2092,263.5564,96.5289,0.0003947,4.617e-05,0.0,0 STARLINK-3054,1 49167U 21082AP  23030.07880139  .00004617  00000-0  39470-3 0  9998,2 49167  69.9997 275.2092 0002687 263.5564  96.5289 14.98308608 77234,6950.259,96.108,573.992,570.257,0.0
49167.0,STARLINK-3054,PAYLOAD,2023-01-30 22:43:12,14.98325886,0.0002805,69.9995,273.0216,267.3234,92.7604,0.00016819,1.914e-05,0.0,0 STARLINK-3054,1 49167U 21082AP  23030.94667484  .00001914  00000-0  16819-3 0  9999,2 49167  69.9995 273.0216 0002805 267.3234  92.7604 14.98325886 77353,6950.206,96.107,574.02,570.121,0.0
49167.0,STARLINK-3054,PAYLOAD,2023-01-31 01:55:29,14.98313259,0.000272,69.9994,272.6849,268.13,91.9548,0.0004084,4.781e-05,0.0,0 STARLINK-3054,1 49167U 21082AP  23031.08019848  .00004781  00000-0  40840-3 0  9996,2 49167  69.9994 272.6849 0002720 268.1300  91.9548 14.98313259 77380,6950.245,96.108,574.0,570.219,0.0
49167.0,STARLINK-3054,PAYLOAD,2023-02-01 01:57:29,14.98336775,0.0002868,69.9989,270.1601,268.4652,91.6178,0.00010323,1.139e-05,0.0,0 STARLINK-3054,1 49167U 21082AP  23032.08158749  .00001139  00000-0  10323-3 0  9998,2 49167  69.9989 270.1601 0002868 268.4652  91.6178 14.98336775 77530,6950.172,96.107,574.03,570.044,0.0
49167.0,STARLINK-3054,PAYLOAD,2023-02-02 01:59:30,14.98345346,0.0002815,69.999,267.6346,270.6885,89.3951,-0.00019951,-2.474e-05,0.0,0 STARLINK-3054,1 49167U 21082AP  23033.08298930 -.00002474  00000-0 -19951-3 0  9997,2 49167  69.9990 267.6346 0002815 270.6885  89.3951 14.98345346 77687,6950.145,96.106,573.967,570.054,0.0
49167.0,STARLINK-3054,PAYLOAD,2023-02-02 21:13:07,14.98287518,0.00026,69.9995,265.6148,278.6063,81.4801,0.00075929,8.968e-05,0.0,0 STARLINK-3054,1 49167U 21082AP  23033.88411286  .00008968  00000-0  75929-3 0  9995,2 49167  69.9995 265.6148 0002600 278.6063  81.4801 14.98287518 77805,6950.324,96.11,573.996,570.382,0.0
49167.0,STARLINK-3054,PAYLOAD,2023-02-03 02:01:31,14.98338011,0.0002835,69.9997,265.1098,272.3807,87.7028,-8.5081e-05,-1.108e-05,0.0,0 STARLINK-3054,1 49167U 21082AP  23034.08438881 -.00001108  00000-0 -85081-4 0  9990,2 49167  69.9997 265.1098 0002835 272.3807  87.7028 14.98338011 77831,6950.168,96.106,574.003,570.063,0.0
49167.0,STARLINK-3054,PAYLOAD,2023-02-04 14:52:36,14.98330241,0.0002687,69.9992,261.2379,266.1012,93.984,4.2056e-05,4.09e-06,0.0,0 STARLINK-3054,1 49167U 21082AP  23035.61987026  .00000409  00000-0  42056-4 0  9996,2 49167  69.9992 261.2379 0002687 266.1012  93.9840 14.98330241 78052,6950.192,96.107,573.925,570.19,0.0
49167.0,STARLINK-3054,PAYLOAD,2023-02-04 19:41:00,14.98330206,0.0002698,69.9997,260.7328,265.4742,94.6109,3.8827e-05,3.7e-06,0.0,0 STARLINK-3054,1 49167U 21082AP  23035.82015029  .00000370  00000-0  38827-4 0  9992,2 49167  69.9997 260.7328 0002698 265.4742  94.6109 14.98330206 78090,6950.192,96.107,573.932,570.182,0.0
49167.0,STARLINK-3054,PAYLOAD,2023-02-04 21:17:09,14.98330739,0.0002774,69.9995,260.5647,267.5119,92.5723,3.9237e-05,3.75e-06,0.0,0 STARLINK-3054,1 49167U 21082AP  23035.88690988  .00000375  00000-0  39237-4 0  9992,2 49167  69.9995 260.5647 0002774 267.5119  92.5723 14.98330739 78096,6950.191,96.107,573.984,570.128,0.0
49167.0,STARLINK-3054,PAYLOAD,2023-02-05 00:29:25,14.98331089,0.0002812,69.9995,260.2282,268.2268,91.8569,3.5953e-05,3.36e-06,0.0,0 STARLINK-3054,1 49167U 21082AP  23036.02042970  .00000336  00000-0  35953-4 0  9999,2 49167  69.9995 260.2282 0002812 268.2268  91.8569 14.98331089 78116,6950.19,96.107,574.009,570.1,0.0
49167.0,STARLINK-3054,PAYLOAD,2023-02-05 19:43:02,14.98327894,0.0002814,69.9994,258.2089,268.4946,91.589,2.7458e-05,2.35e-06,0.0,0 STARLINK-3054,1 49167U 21082AP  23036.82155262  .00000235  00000-0  27458-4 0  9995,2 49167  69.9994 258.2089 0002814 268.4946  91.5890 14.98327894 78241,6950.199,96.107,574.02,570.109,0.0
49167.0,STARLINK-3054,PAYLOAD,2023-02-05 21:19:10,14.98329072,0.0002809,69.9994,258.0402,267.9947,92.089,3.7891e-05,3.59e-06,0.0,0 STARLINK-3054,1 49167U 21082AP  23036.88831151  .00000359  00000-0  37891-4 0  9998,2 49167  69.9994 258.0402 0002809 267.9947  92.0890 14.98329072 78243,6950.196,96.107,574.013,570.108,0.0
49167.0,STARLINK-3054,PAYLOAD,2023-02-06 00:31:26,14.98329387,0.0002838,69.9993,257.7034,268.4336,91.6498,3.9048e-05,3.73e-06,0.0,0 STARLINK-3054,1 49167U 21082AP  23037.02183134  .00000373  00000-0  39048-4 0  9998,2 49167  69.9993 257.7034 0002838 268.4336  91.6498 14.98329387 78269,6950.195,96.107,574.032,570.087,0.0
49167.0,STARLINK-3054,PAYLOAD,2023-02-06 19:45:02,14.98333435,0.0002876,69.9991,255.6833,268.8343,91.2486,6.3757e-05,6.68e-06,0.0,0 STARLINK-3054,1 49167U 21082AP  23037.82294815  .00000668  00000-0  63757-4 0  9996,2 49167  69.9991 255.6833 0002876 268.8343  91.2486 14.98333435 78391,6950.182,96.107,574.046,570.048,0.0
49167.0,STARLINK-3054,PAYLOAD,2023-02-06 21:21:10,14.98335637,0.0002867,69.999,255.5149,268.7899,91.2931,8.7867e-05,9.56e-06,0.0,0 STARLINK-3054,1 49167U 21082AP  23037.88970604  .00000956  00000-0  87867-4 0  9997,2 49167  69.9990 255.5149 0002867 268.7899  91.2931 14.98335637 78395,6950.175,96.107,574.033,570.048,0.0
49167.0,STARLINK-3054,PAYLOAD,2023-02-07 00:33:26,14.98337063,0.0002848,69.999,255.1781,268.8403,91.243,0.00010144,1.118e-05,0.0,0 STARLINK-3054,1 49167U 21082AP  23038.02322446  .00001118  00000-0  10144-3 0  9993,2 49167  69.9990 255.1781 0002848 268.8403  91.2430 14.98337063 78416,6950.171,96.107,574.015,570.057,0.0
49167.0,STARLINK-3054,PAYLOAD,2023-02-07 19:47:03,14.98329713,0.0002797,69.9989,253.1582,269.0061,91.0778,4.3313e-05,4.24e-06,0.0,0 STARLINK-3054,1 49167U 21082AP  23038.82435002  .00000424  00000-0  43313-4 0  9998,2 49167  69.9989 253.1582 0002797 269.0061  91.0778 14.98329713 78547,6950.194,96.107,574.003,570.115,0.0
49167.0,STARLINK-3054,PAYLOAD,2023-02-07 21:23:11,14.9832935,0.0002804,69.9989,252.9898,269.0463,91.0375,3.8608e-05,3.68e-06,0.0,0 STARLINK-3054,1 49167U 21082AP  23038.89111057  .00000368  00000-0  38608-4 0  9994,2 49167  69.9989 252.9898 0002804 269.0463  91.0375 14.98329350 78549,6950.195,96.107,574.009,570.111,0.0
49167.0,STARLINK-3054,PAYLOAD,2023-02-07 22:59:20,14.9832934,0.0002805,69.9989,252.8215,269.1122,90.9716,3.7034e-05,3.49e-06,0.0,0 STARLINK-3054,1 49167U 21082AP  23038.95787060  .00000349  00000-0  37034-4 0  9995,2 49167  69.9989 252.8215 0002805 269.1122  90.9716 14.98329340 78552,6950.195,96.107,574.009,570.11,0.0
49167.0,STARLINK-3054,PAYLOAD,2023-02-08 19:49:04,14.98334728,0.0002779,69.9989,250.6331,269.9522,90.1318,1.553e-05,9.2e-07,0.0,0 STARLINK-3054,1 49167U 21082AP  23039.82574693  .00000092  00000-0  15530-4 0  9990,2 49167  69.9989 250.6331 0002779 269.9522  90.1318 14.98334728 78690,6950.178,96.107,573.975,570.112,0.0
49167.0,STARLINK-3054,PAYLOAD,2023-02-08 21:25:12,14.98334254,0.0002788,69.9989,250.4648,269.9571,90.1269,1.1005e-05,3.8e-07,0.0,0 STARLINK-3054,1 49167U 21082AP  23039.89250744  .00000038  00000-0  11005-4 0  9998,2 49167  69.9989 250.4648 0002788 269.9571  90.1269 14.98334254 78692,6950.18,96.107,573.982,570.107,0.0
49167.0,STARLINK-3054,PAYLOAD,2023-02-09 00:37:28,14.98335066,0.0002783,69.9989,250.1281,270.1807,89.9033,1.9525e-05,1.4e-06,0.0,0 STARLINK-3054,1 49167U 21082AP  23040.02602631  .00000140  00000-0  19525-4 0  9990,2 49167  69.9989 250.1281 0002783 270.1807  89.9033 14.98335066 78713,6950.177,96.107,573.976,570.108,0.0
49167.0,STARLINK-3054,PAYLOAD,2023-02-09 19:51:05,14.98329488,0.0002822,69.9988,248.1078,265.7624,94.3213,5.6551e-05,5.82e-06,0.0,0 STARLINK-3054,1 49167U 21082AP  23040.82714839  .00000582  00000-0  56551-4 0  9992,2 49167  69.9988 248.1078 0002822 265.7624  94.3213 14.98329488 78849,6950.194,96.107,574.021,570.098,0.0
49167.0,STARLINK-3054,PAYLOAD,2023-02-09 21:27:13,14.98329542,0.0002829,69.9989,247.9394,265.4759,94.6077,5.63e-05,5.79e-06,0.0,0 STARLINK-3054,1 49167U 21082AP  23040.89390858  .00000579  00000-0  56300-4 0  9998,2 49167  69.9989 247.9394 0002829 265.4759  94.6077 14.98329542 78843,6950.194,96.107,574.026,570.093,0.0
49167.0,STARLINK-3054,PAYLOAD,2023-02-10 19:53:06,14.98331381,0.0002833,69.9989,245.5824,265.8405,94.243,3.8153e-05,3.62e-06,0.0,0 STARLINK-3054,1 49167U 21082AP  23041.82854799  .00000362  00000-0  38153-4 0  9997,2 49167  69.9989 245.5824 0002833 265.8405  94.2430 14.98331381 78991,6950.189,96.107,574.023,570.085,0.0
49167.0,STARLINK-3054,PAYLOAD,2023-02-10 23:05:22,14.98332277,0.0002826,69.9991,245.2458,266.0393,94.0443,4.6597e-05,4.63e-06,0.0,0 STARLINK-3054,1 49167U 21082AP  23041.96206710  .00000463  00000-0  46597-4 0  9999,2 49167  69.9991 245.2458 0002826 266.0393  94.0443 14.98332277 79005,6950.186,96.107,574.015,570.087,0.0
